{"type":"FeatureCollection","features":[{"type":"Feature","geometry":{"type":"Polygon","coordinates":[[[-84.4425977,30.8381768],[-84.4424161,30.8379034],[-84.4423436,30.8379389],[-84.4425252,30.8382123],[-84.4425977,30.8381768]]]},"properties":{"name":"1","unit_type":"campsite","availability":"available","check_in":"","check_out":"","as_of":"2026-08-10"}},{"type":"Feature","geometry":{"type":"Polygon","coordinates":[[[-84.4426933,30.8381288],[-84.4425117,30.8378554],[-84.4424392,30.8378909],[-84.4426208,30.8381643],[-84.4426933,30.8381288]]]},"properties":{"name":"2","unit_type":"campsite","availability":"available","check_in":"","check_out":"","as_of":"2026-08-10"}},{"type":"Feature","geometry":{"type":"Polygon","coordinates":[[[-84.442782,30.8380904],[-84.4426004,30.837817],[-84.442528,30.8378525],[-84.4427096,30.8381259],[-84.442782,30.8380904]]]},"properties":{"name":"3","unit_type":"campsite","availability":"available","check_in":"","check_out":"","as_of":"2026-08-10"}},{"type":"Feature","geometry":{"type":"Polygon","coordinates":[[[-84.4428703,30.8380483],[-84.4426887,30.8377749],[-84.4426162,30.8378104],[-84.4427979,30.8380838],[-84.4428703,30.8380483]]]},"properties":{"name":"4","unit_type":"campsite","availability":"available","check_in":"","check_out":"","as_of":"2026-08-10"}},{"type":"Feature","geometry":{"type":"Polygon","coordinates":[[[-84.4429614,30.838006],[-84.4427797,30.8377326],[-84.4427073,30.8377681],[-84.4428889,30.8380415],[-84.4429614,30.838006]]]},"properties":{"name":"5","unit_type":"campsite","availability":"available","check_in":"","check_out":"","as_of":"2026-08-10"}},{"type":"Feature","geometry":{"type":"Polygon","coordinates":[[[-84.4430463,30.8379639],[-84.4428647,30.8376905],[-84.4427922,30.837726],[-84.4429739,30.8379994],[-84.4430463,30.8379639]]]},"properties":{"name":"6","unit_type":"campsite","availability":"available","check_in":"","check_out":"","as_of":"2026-08-10"}},{"type":"Feature","geometry":{"type":"Polygon","coordinates":[[[-84.4431381,30.8379216],[-84.4429565,30.8376482],[-84.442884,30.8376837],[-84.4430657,30.8379571],[-84.4431381,30.8379216]]]},"properties":{"name":"7","unit_type":"campsite","availability":"available","check_in":"","check_out":"","as_of":"2026-08-10"}},{"type":"Feature","geometry":{"type":"Polygon","coordinates":[[[-84.4432267,30.837885],[-84.4430451,30.8376116],[-84.4429726,30.8376471],[-84.4431543,30.8379205],[-84.4432267,30.837885]]]},"properties":{"name":"8","unit_type":"campsite","availability":"available","check_in":"","check_out":"","as_of":"2026-08-10"}},{"type":"Feature","geometry":{"type":"Polygon","coordinates":[[[-84.4433152,30.8378512],[-84.4431336,30.8375778],[-84.4430611,30.8376133],[-84.4432428,30.8378867],[-84.4433152,30.8378512]]]},"properties":{"name":"9","unit_type":"campsite","availability":"available","check_in":"","check_out":"","as_of":"2026-08-10"}},{"type":"Feature","geometry":{"type":"Polygon","coordinates":[[[-84.4436426,30.8376946],[-84.4434555,30.837424],[-84.4433838,30.8374606],[-84.4435709,30.8377312],[-84.4436426,30.8376946]]]},"properties":{"name":"10","unit_type":"campsite","availability":"available","check_in":"","check_out":"","as_of":"2026-08-10"}},{"type":"Feature","geometry":{"type":"Polygon","coordinates":[[[-84.4437238,30.8376557],[-84.4435461,30.8373803],[-84.4434732,30.837415],[-84.4436508,30.8376904],[-84.4437238,30.8376557]]]},"properties":{"name":"11","unit_type":"campsite","availability":"available","check_in":"","check_out":"","as_of":"2026-08-10"}},{"type":"Feature","geometry":{"type":"Polygon","coordinates":[[[-84.4438156,30.8376247],[-84.443638,30.8373493],[-84.4435651,30.8373841],[-84.4437426,30.8376594],[-84.4438156,30.8376247]]]},"properties":{"name":"12","unit_type":"campsite","availability":"available","check_in":"","check_out":"","as_of":"2026-08-10"}},{"type":"Feature","geometry":{"type":"Polygon","coordinates":[[[-84.4439021,30.8375824],[-84.4437179,30.8373103],[-84.4436458,30.8373463],[-84.44383,30.8376184],[-84.4439021,30.8375824]]]},"properties":{"name":"13","unit_type":"campsite","availability":"available","check_in":"","check_out":"","as_of":"2026-08-10"}},{"type":"Feature","geometry":{"type":"Polygon","coordinates":[[[-84.4439851,30.8375466],[-84.4438009,30.8372744],[-84.4437287,30.8373105],[-84.4439129,30.8375826],[-84.4439851,30.8375466]]]},"properties":{"name":"14","unit_type":"campsite","availability":"available","check_in":"","check_out":"","as_of":"2026-08-10"}},{"type":"Feature","geometry":{"type":"Polygon","coordinates":[[[-84.4440652,30.8375086],[-84.4438849,30.8372345],[-84.4438122,30.8372698],[-84.4439925,30.8375439],[-84.4440652,30.8375086]]]},"properties":{"name":"15","unit_type":"campsite","availability":"available","check_in":"","check_out":"","as_of":"2026-08-10"}},{"type":"Feature","geometry":{"type":"Polygon","coordinates":[[[-84.4441467,30.8374696],[-84.4439702,30.8371936],[-84.4438971,30.8372282],[-84.4440737,30.837504],[-84.4441467,30.8374696]]]},"properties":{"name":"16","unit_type":"campsite","availability":"available","check_in":"","check_out":"","as_of":"2026-08-10"}},{"type":"Feature","geometry":{"type":"Polygon","coordinates":[[[-84.4442324,30.8374342],[-84.444054,30.8371593],[-84.4439811,30.8371941],[-84.4441595,30.8374691],[-84.4442324,30.8374342]]]},"properties":{"name":"17","unit_type":"campsite","availability":"available","check_in":"","check_out":"","as_of":"2026-08-10"}},{"type":"Feature","geometry":{"type":"Polygon","coordinates":[[[-84.4443201,30.8373981],[-84.4441419,30.8371231],[-84.444069,30.8371579],[-84.4442473,30.837433],[-84.4443201,30.8373981]]]},"properties":{"name":"18","unit_type":"campsite","availability":"available","check_in":"","check_out":"","as_of":"2026-08-10"}},{"type":"Feature","geometry":{"type":"Polygon","coordinates":[[[-84.4444047,30.837362],[-84.444228,30.8370863],[-84.4441549,30.8371208],[-84.4443317,30.8373966],[-84.4444047,30.837362]]]},"properties":{"name":"19","unit_type":"campsite","availability":"available","check_in":"","check_out":"","as_of":"2026-08-10"}},{"type":"Feature","geometry":{"type":"Polygon","coordinates":[[[-84.4444867,30.8373198],[-84.44431,30.837044],[-84.4442369,30.8370785],[-84.4444137,30.8373543],[-84.4444867,30.8373198]]]},"properties":{"name":"20","unit_type":"campsite","availability":"available","check_in":"","check_out":"","as_of":"2026-08-10"}},{"type":"Feature","geometry":{"type":"Polygon","coordinates":[[[-84.4445729,30.8372767],[-84.4443909,30.8370035],[-84.4443185,30.837039],[-84.4445004,30.8373122],[-84.4445729,30.8372767]]]},"properties":{"name":"21","unit_type":"campsite","availability":"available","check_in":"","check_out":"","as_of":"2026-08-10"}},{"type":"Feature","geometry":{"type":"Polygon","coordinates":[[[-84.4446581,30.8372401],[-84.4444761,30.8369668],[-84.4444037,30.8370023],[-84.4445856,30.8372756],[-84.4446581,30.8372401]]]},"properties":{"name":"22","unit_type":"campsite","availability":"available","check_in":"","check_out":"","as_of":"2026-08-10"}},{"type":"Feature","geometry":{"type":"Polygon","coordinates":[[[-84.4447395,30.8371936],[-84.4445562,30.836921],[-84.4444839,30.8369568],[-84.4446673,30.8372294],[-84.4447395,30.8371936]]]},"properties":{"name":"23","unit_type":"campsite","availability":"available","check_in":"","check_out":"","as_of":"2026-08-10"}},{"type":"Feature","geometry":{"type":"Polygon","coordinates":[[[-84.44482189,30.83715548],[-84.44463859,30.83688288],[-84.44456629,30.83691868],[-84.44474969,30.83719128],[-84.44482189,30.83715548]]]},"properties":{"name":"24","unit_type":"campsite","availability":"available","check_in":"","check_out":"","as_of":"2026-08-10"}},{"type":"Feature","geometry":{"type":"Polygon","coordinates":[[[-84.44490673,30.8371174],[-84.44472163,30.8368457],[-84.44464953,30.8368819],[-84.44483473,30.8371536],[-84.44490673,30.8371174]]]},"properties":{"name":"25","unit_type":"campsite","availability":"available","check_in":"","check_out":"","as_of":"2026-08-10"}},{"type":"Feature","geometry":{"type":"Polygon","coordinates":[[[-84.44504447,30.83709906],[-84.4450171,30.83678518],[-84.44493375,30.83679064],[-84.44496142,30.83710443],[-84.44504447,30.83709906]]]},"properties":{"name":"26","unit_type":"campsite","availability":"available","check_in":"","check_out":"","as_of":"2026-08-10"}},{"type":"Feature","geometry":{"type":"Polygon","coordinates":[[[-84.4451348,30.83709493],[-84.44511588,30.83678068],[-84.44503241,30.83678439],[-84.44505152,30.83709874],[-84.4451348,30.83709493]]]},"properties":{"name":"27","unit_type":"campsite","availability":"booked","check_in":"2026-08-06","check_out":"2026-08-13","as_of":"2026-08-10"}},{"type":"Feature","geometry":{"type":"Polygon","coordinates":[[[-84.4452289,30.8370884],[-84.4452072,30.8367742],[-84.4451239,30.8367785],[-84.4451457,30.8370927],[-84.4452289,30.8370884]]]},"properties":{"name":"28","unit_type":"campsite","availability":"available","check_in":"","check_out":"","as_of":"2026-08-10"}},{"type":"Feature","geometry":{"type":"Polygon","coordinates":[[[-84.445321,30.8370875],[-84.4453089,30.8367729],[-84.4452254,30.8367753],[-84.4452377,30.8370899],[-84.445321,30.8370875]]]},"properties":{"name":"29","unit_type":"campsite","availability":"available","check_in":"","check_out":"","as_of":"2026-08-10"}},{"type":"Feature","geometry":{"type":"Polygon","coordinates":[[[-84.4454185,30.8370811],[-84.4454034,30.8367666],[-84.44532,30.8367696],[-84.4453351,30.8370841],[-84.4454185,30.8370811]]]},"properties":{"name":"30","unit_type":"campsite","availability":"available","check_in":"","check_out":"","as_of":"2026-08-10"}},{"type":"Feature","geometry":{"type":"Polygon","coordinates":[[[-84.4452057,30.8375021],[-84.445051,30.8372167],[-84.4449754,30.837247],[-84.44513,30.8375324],[-84.4452057,30.8375021]]]},"properties":{"name":"31","unit_type":"campsite","availability":"available","check_in":"","check_out":"","as_of":"2026-08-10"}},{"type":"Feature","geometry":{"type":"Polygon","coordinates":[[[-84.4451197,30.837537],[-84.4449593,30.837254],[-84.4448843,30.8372854],[-84.4450447,30.8375684],[-84.4451197,30.837537]]]},"properties":{"name":"32","unit_type":"campsite","availability":"available","check_in":"","check_out":"","as_of":"2026-08-10"}},{"type":"Feature","geometry":{"type":"Polygon","coordinates":[[[-84.4450313,30.8375765],[-84.4448703,30.8372938],[-84.4447953,30.8373252],[-84.4449564,30.837608],[-84.4450313,30.8375765]]]},"properties":{"name":"33","unit_type":"campsite","availability":"available","check_in":"","check_out":"","as_of":"2026-08-10"}},{"type":"Feature","geometry":{"type":"Polygon","coordinates":[[[-84.4449352,30.837611],[-84.4447763,30.8373274],[-84.4447012,30.8373584],[-84.44486,30.837642],[-84.4449352,30.837611]]]},"properties":{"name":"34","unit_type":"campsite","availability":"available","check_in":"","check_out":"","as_of":"2026-08-10"}},{"type":"Feature","geometry":{"type":"Polygon","coordinates":[[[-84.4448489,30.8376453],[-84.4446919,30.8373609],[-84.4446166,30.8373916],[-84.4447734,30.8376761],[-84.4448489,30.8376453]]]},"properties":{"name":"35","unit_type":"campsite","availability":"available","check_in":"","check_out":"","as_of":"2026-08-10"}},{"type":"Feature","geometry":{"type":"Polygon","coordinates":[[[-84.444757,30.8376763],[-84.4446001,30.8373919],[-84.4445248,30.8374225],[-84.4446816,30.837707],[-84.444757,30.8376763]]]},"properties":{"name":"36","unit_type":"campsite","availability":"available","check_in":"","check_out":"","as_of":"2026-08-10"}},{"type":"Feature","geometry":{"type":"Polygon","coordinates":[[[-84.444675,30.8377157],[-84.4445181,30.8374313],[-84.4444428,30.837462],[-84.4445996,30.8377465],[-84.444675,30.8377157]]]},"properties":{"name":"37","unit_type":"campsite","availability":"available","check_in":"","check_out":"","as_of":"2026-08-10"}},{"type":"Feature","geometry":{"type":"Polygon","coordinates":[[[-84.4445898,30.8377523],[-84.4444328,30.8374679],[-84.4443575,30.8374986],[-84.4445144,30.8377831],[-84.4445898,30.8377523]]]},"properties":{"name":"38","unit_type":"campsite","availability":"available","check_in":"","check_out":"","as_of":"2026-08-10"}},{"type":"Feature","geometry":{"type":"Polygon","coordinates":[[[-84.4444966,30.8377916],[-84.4443495,30.8375033],[-84.4442731,30.8375321],[-84.4444202,30.8378204],[-84.4444966,30.8377916]]]},"properties":{"name":"39","unit_type":"campsite","availability":"available","check_in":"","check_out":"","as_of":"2026-08-10"}},{"type":"Feature","geometry":{"type":"Polygon","coordinates":[[[-84.4444148,30.8378289],[-84.4442599,30.8375436],[-84.4441843,30.8375739],[-84.4443392,30.8378592],[-84.4444148,30.8378289]]]},"properties":{"name":"40","unit_type":"campsite","availability":"available","check_in":"","check_out":"","as_of":"2026-08-10"}},{"type":"Feature","geometry":{"type":"Polygon","coordinates":[[[-84.4442619,30.837918],[-84.4440906,30.8376397],[-84.4440169,30.8376732],[-84.4441881,30.8379515],[-84.4442619,30.837918]]]},"properties":{"name":"41","unit_type":"campsite","availability":"available","check_in":"","check_out":"","as_of":"2026-08-10"}},{"type":"Feature","geometry":{"type":"Polygon","coordinates":[[[-84.4441784,30.8379624],[-84.4440113,30.8376822],[-84.4439371,30.8377149],[-84.4441041,30.837995],[-84.4441784,30.8379624]]]},"properties":{"name":"42","unit_type":"campsite","availability":"available","check_in":"","check_out":"","as_of":"2026-08-10"}},{"type":"Feature","geometry":{"type":"Polygon","coordinates":[[[-84.4440899,30.8379933],[-84.4439228,30.8377131],[-84.4438486,30.8377458],[-84.4440156,30.8380259],[-84.4440899,30.8379933]]]},"properties":{"name":"43","unit_type":"campsite","availability":"available","check_in":"","check_out":"","as_of":"2026-08-10"}},{"type":"Feature","geometry":{"type":"Polygon","coordinates":[[[-84.4440048,30.838027],[-84.4438377,30.8377468],[-84.4437635,30.8377795],[-84.4439305,30.8380597],[-84.4440048,30.838027]]]},"properties":{"name":"44","unit_type":"campsite","availability":"available","check_in":"","check_out":"","as_of":"2026-08-10"}},{"type":"Feature","geometry":{"type":"Polygon","coordinates":[[[-84.4439162,30.8380579],[-84.4437491,30.8377777],[-84.4436749,30.8378104],[-84.4438419,30.8380906],[-84.4439162,30.8380579]]]},"properties":{"name":"45","unit_type":"campsite","availability":"available","check_in":"","check_out":"","as_of":"2026-08-10"}},{"type":"Feature","geometry":{"type":"Polygon","coordinates":[[[-84.4438341,30.8380951],[-84.4436671,30.8378149],[-84.4435928,30.8378476],[-84.4437599,30.8381278],[-84.4438341,30.8380951]]]},"properties":{"name":"46","unit_type":"campsite","availability":"available","check_in":"","check_out":"","as_of":"2026-08-10"}},{"type":"Feature","geometry":{"type":"Polygon","coordinates":[[[-84.4437488,30.8381345],[-84.4435818,30.8378543],[-84.4435075,30.837887],[-84.4436746,30.8381672],[-84.4437488,30.8381345]]]},"properties":{"name":"47","unit_type":"campsite","availability":"available","check_in":"","check_out":"","as_of":"2026-08-10"}},{"type":"Feature","geometry":{"type":"Polygon","coordinates":[[[-84.4436603,30.8381711],[-84.4434933,30.8378909],[-84.443419,30.8379236],[-84.4435861,30.8382038],[-84.4436603,30.8381711]]]},"properties":{"name":"48","unit_type":"campsite","availability":"available","check_in":"","check_out":"","as_of":"2026-08-10"}},{"type":"Feature","geometry":{"type":"Polygon","coordinates":[[[-84.443575,30.8382049],[-84.443408,30.8379247],[-84.4433337,30.8379574],[-84.4435008,30.8382376],[-84.443575,30.8382049]]]},"properties":{"name":"49","unit_type":"campsite","availability":"available","check_in":"","check_out":"","as_of":"2026-08-10"}},{"type":"Feature","geometry":{"type":"Polygon","coordinates":[[[-84.4434898,30.8382387],[-84.4433228,30.8379585],[-84.4432485,30.8379912],[-84.4434156,30.8382714],[-84.4434898,30.8382387]]]},"properties":{"name":"50","unit_type":"campsite","availability":"available","check_in":"","check_out":"","as_of":"2026-08-10"}},{"type":"Feature","geometry":{"type":"Polygon","coordinates":[[[-84.44120815,30.83519203],[-84.44127025,30.83497493],[-84.44121265,30.83496283],[-84.4411707,30.83512734],[-84.44115055,30.83517993],[-84.44120815,30.83519203]]]},"properties":{"name":"51","unit_type":"campsite","availability":"available","check_in":"","check_out":"","as_of":"2026-08-10"}},{"type":"Feature","geometry":{"type":"Polygon","coordinates":[[[-84.44112906,30.835178],[-84.44119106,30.8349609],[-84.44113356,30.8349488],[-84.44109256,30.8351097],[-84.44107156,30.8351659],[-84.44112906,30.835178]]]},"properties":{"name":"52","unit_type":"campsite","availability":"available","check_in":"","check_out":"","as_of":"2026-08-10"}},{"type":"Feature","geometry":{"type":"Polygon","coordinates":[[[-84.44104991,30.8351637],[-84.44111191,30.8349466],[-84.44105441,30.8349345],[-84.44101431,30.8350884],[-84.44099231,30.8351516],[-84.44104991,30.8351637]]]},"properties":{"name":"53","unit_type":"campsite","availability":"available","check_in":"","check_out":"","as_of":"2026-08-10"}},{"type":"Feature","geometry":{"type":"Polygon","coordinates":[[[-84.4409749,30.8351673],[-84.441037,30.8349502],[-84.4409795,30.8349381],[-84.4409403,30.8350849],[-84.4409174,30.8351552],[-84.4409749,30.8351673]]]},"properties":{"name":"54","unit_type":"campsite","availability":"available","check_in":"","check_out":"","as_of":"2026-08-10"}},{"type":"Feature","geometry":{"type":"Polygon","coordinates":[[[-84.44088077,30.8351723],[-84.44094597,30.8349443],[-84.44088557,30.8349317],[-84.44082037,30.8351595],[-84.44088077,30.8351723]]]},"properties":{"name":"55","unit_type":"campsite","availability":"available","check_in":"","check_out":"","as_of":"2026-08-10"}},{"type":"Feature","geometry":{"type":"Polygon","coordinates":[[[-84.44078231,30.83518695],[-84.44084631,30.83496305],[-84.44078701,30.83495055],[-84.44075181,30.83508775],[-84.44072291,30.83517445],[-84.44078231,30.83518695]]]},"properties":{"name":"56","unit_type":"campsite","availability":"available","check_in":"","check_out":"","as_of":"2026-08-10"}},{"type":"Feature","geometry":{"type":"Polygon","coordinates":[[[-84.44012529,30.83524207],[-84.44018729,30.83502497],[-84.44012979,30.83501287],[-84.44009559,30.83514597],[-84.44006769,30.83522997],[-84.44012529,30.83524207]]]},"properties":{"name":"57","unit_type":"campsite","availability":"available","check_in":"","check_out":"","as_of":"2026-08-10"}},{"type":"Feature","geometry":{"type":"Polygon","coordinates":[[[-84.44004222,30.83522787],[-84.44010432,30.83501077],[-84.44004682,30.83499867],[-84.44001262,30.83513167],[-84.43998472,30.83521577],[-84.44004222,30.83522787]]]},"properties":{"name":"58","unit_type":"campsite","availability":"available","check_in":"","check_out":"","as_of":"2026-08-10"}},{"type":"Feature","geometry":{"type":"Polygon","coordinates":[[[-84.43995499,30.8352173],[-84.44001709,30.8350002],[-84.43995949,30.8349881],[-84.43992539,30.8351211],[-84.43989749,30.8352052],[-84.43995499,30.8352173]]]},"properties":{"name":"59","unit_type":"campsite","availability":"available","check_in":"","check_out":"","as_of":"2026-08-10"}},{"type":"Feature","geometry":{"type":"Polygon","coordinates":[[[-84.43987188,30.83519944],[-84.43993398,30.83498234],[-84.43987638,30.83497024],[-84.43984228,30.83510334],[-84.43981428,30.83518734],[-84.43987188,30.83519944]]]},"properties":{"name":"60","unit_type":"campsite","availability":"available","check_in":"","check_out":"","as_of":"2026-08-10"}},{"type":"Feature","geometry":{"type":"Polygon","coordinates":[[[-84.43978336,30.83518608],[-84.43985845,30.83497208],[-84.43980166,30.83495738],[-84.43976394,30.83507511],[-84.43972664,30.83517147],[-84.43978336,30.83518608]]]},"properties":{"name":"61","unit_type":"campsite","availability":"available","check_in":"","check_out":"","as_of":"2026-08-10"}},{"type":"Feature","geometry":{"type":"Polygon","coordinates":[[[-84.43970824,30.83518338],[-84.4397706,30.83496632],[-84.439713,30.83495419],[-84.43968988,30.83503978],[-84.43965065,30.83517125],[-84.43970824,30.83518338]]]},"properties":{"name":"62","unit_type":"campsite","availability":"available","check_in":"","check_out":"","as_of":"2026-08-10"}},{"type":"Feature","geometry":{"type":"Polygon","coordinates":[[[-84.4392061,30.83531352],[-84.439419,30.83518482],[-84.4393849,30.83514322],[-84.4392332,30.83523052],[-84.439172,30.83527182],[-84.4392061,30.83531352]]]},"properties":{"name":"63","unit_type":"campsite","availability":"available","check_in":"","check_out":"","as_of":"2026-08-10"}},{"type":"Feature","geometry":{"type":"Polygon","coordinates":[[[-84.43927233,30.83540589],[-84.43948523,30.83527719],[-84.43945103,30.83523559],[-84.43934433,30.83529069],[-84.43923823,30.83536429],[-84.43927233,30.83540589]]]},"properties":{"name":"64","unit_type":"campsite","availability":"available","check_in":"","check_out":"","as_of":"2026-08-10"}},{"type":"Feature","geometry":{"type":"Polygon","coordinates":[[[-84.43932174,30.8354942],[-84.43953464,30.8353655],[-84.43950044,30.8353239],[-84.43939374,30.835379],[-84.43928764,30.8354526],[-84.43932174,30.8354942]]]},"properties":{"name":"65","unit_type":"campsite","availability":"available","check_in":"","check_out":"","as_of":"2026-08-10"}}]}