{"type":"FeatureCollection","features":[{"type":"Feature","geometry":{"type":"Polygon","coordinates":[[[-84.4393228,30.8347881],[-84.4392697,30.8346561],[-84.4391831,30.8346801],[-84.4392502,30.8348121],[-84.4393228,30.8347881]]]},"properties":{"name":"A FRAME","unit_type":"lodging","availability":"available","guest_name":"","booking_ref":"","check_in":"","check_out":"","as_of":"2026-07-31","description":"1 Bed 1 Bath & Loft (upper level) / 1 Bed 1 Bath (lower level)"}},{"type":"Feature","geometry":{"type":"Polygon","coordinates":[[[-84.4392568,30.8351392],[-84.4392289,30.8351008],[-84.4391087,30.8351536],[-84.4391339,30.8351992],[-84.4392568,30.8351392]]]},"properties":{"name":"Cabin","unit_type":"lodging","availability":"available","guest_name":"","booking_ref":"","check_in":"","check_out":"","as_of":"2026-07-31","description":"1 Bed 1 Bath"}},{"type":"Feature","geometry":{"type":"Polygon","coordinates":[[[-84.4391646,30.8350264],[-84.4391618,30.8348752],[-84.439088,30.8348601],[-84.4390919,30.835024],[-84.4391646,30.8350264]]]},"properties":{"name":"HOUSE","unit_type":"lodging","availability":"available","guest_name":"","booking_ref":"","check_in":"","check_out":"","as_of":"2026-07-31","description":"3 Beds 2 Baths"}}]}